{"type": "FeatureCollection", "features": [ {"type": "Feature", "properties": {"norad_id": 34590, "name": "COSMOS 2251 DEB", "group": "cosmos-2251-debris", "lat": 28.5309671397108, "lon": -10.459309687650572, "alt_km": 702.2483195235218, "timestamp": "2025-12-03T04:52:30.033389+00:00", "meta": {"OBJECT_NAME": "COSMOS 2251 DEB", "OBJECT_ID": "1993-036WC", "EPOCH": "2025-12-02T11:17:38.314176", "MEAN_MOTION": 14.54806792, "ECCENTRICITY": 0.00680687, "INCLINATION": 74.0436, "RA_OF_ASC_NODE": 341.9774, "ARG_OF_PERICENTER": 114.5858, "MEAN_ANOMALY": 41.0911, "EPHEMERIS_TYPE": 0, "CLASSIFICATION_TYPE": "U", "NORAD_CAT_ID": 34590, "ELEMENT_SET_NO": 999, "REV_AT_EPOCH": 88971, "BSTAR": 0.00016114285, "MEAN_MOTION_DOT": 6.83e-06, "MEAN_MOTION_DDOT": 0}, "tle": {"line1": "1 34590U 93036WC  25336.47058234  .00000683  00000+0  16114-3 0  9996", "line2": "2 34590  74.0436 341.9774 0068068 114.5858  41.0911 14.54806792889717"}}, "geometry": {"type": "Point", "coordinates": [-10.459309687650572, 28.5309671397108]}}, {"type": "Feature", "properties": {"norad_id": 34609, "name": "COSMOS 2251 DEB", "group": "cosmos-2251-debris", "lat": -30.602146471464636, "lon": -45.904094585763765, "alt_km": 895.5267296739439, "timestamp": "2025-12-03T04:52:30.033399+00:00", "meta": {"OBJECT_NAME": "COSMOS 2251 DEB", "OBJECT_ID": "1993-036WE", "EPOCH": "2025-12-02T16:07:22.419264", "MEAN_MOTION": 14.21734157, "ECCENTRICITY": 0.01446983, "INCLINATION": 73.7311, "RA_OF_ASC_NODE": 125.121, "ARG_OF_PERICENTER": 346.1444, "MEAN_ANOMALY": 28.5357, "EPHEMERIS_TYPE": 0, "CLASSIFICATION_TYPE": "U", "NORAD_CAT_ID": 34609, "ELEMENT_SET_NO": 999, "REV_AT_EPOCH": 86489, "BSTAR": 0.00086496661, "MEAN_MOTION_DOT": 2.088e-05, "MEAN_MOTION_DDOT": 0}, "tle": {"line1": "1 34609U 93036WE  25336.67178726  .00002088  00000+0  86497-3 0  9990", "line2": "2 34609  73.7311 125.1210 0144698 346.1444  28.5357 14.21734157864896"}}, "geometry": {"type": "Point", "coordinates": [-45.904094585763765, -30.602146471464636]}}, {"type": "Feature", "properties": {"norad_id": 34610, "name": "COSMOS 2251 DEB", "group": "cosmos-2251-debris", "lat": 11.941779305808355, "lon": 95.5665411845099, "alt_km": 925.4953188606523, "timestamp": "2025-12-03T04:52:30.033410+00:00", "meta": {"OBJECT_NAME": "COSMOS 2251 DEB", "OBJECT_ID": "1993-036WF", "EPOCH": "2025-12-02T05:54:49.499136", "MEAN_MOTION": 14.06923828, "ECCENTRICITY": 0.0179992, "INCLINATION": 74.0187, "RA_OF_ASC_NODE": 280.718, "ARG_OF_PERICENTER": 53.6294, "MEAN_ANOMALY": 308.1299, "EPHEMERIS_TYPE": 0, "CLASSIFICATION_TYPE": "U", "NORAD_CAT_ID": 34610, "ELEMENT_SET_NO": 999, "REV_AT_EPOCH": 85412, "BSTAR": 0.0026726, "MEAN_MOTION_DOT": 5.142e-05, "MEAN_MOTION_DDOT": 0}, "tle": {"line1": "1 34610U 93036WF  25336.24640624  .00005142  00000+0  26726-2 0  9998", "line2": "2 34610  74.0187 280.7180 0179992  53.6294 308.1299 14.06923828854120"}}, "geometry": {"type": "Point", "coordinates": [95.5665411845099, 11.941779305808355]}}, {"type": "Feature", "properties": {"norad_id": 34611, "name": "COSMOS 2251 DEB", "group": "cosmos-2251-debris", "lat": -58.070979838399445, "lon": -33.26813257376034, "alt_km": 666.8192413205052, "timestamp": "2025-12-03T04:52:30.033420+00:00", "meta": {"OBJECT_NAME": "COSMOS 2251 DEB", "OBJECT_ID": "1993-036WG", "EPOCH": "2025-12-02T16:24:15.257088", "MEAN_MOTION": 14.69161459, "ECCENTRICITY": 0.0024047, "INCLINATION": 74.0521, "RA_OF_ASC_NODE": 120.4215, "ARG_OF_PERICENTER": 165.3295, "MEAN_ANOMALY": 209.2062, "EPHEMERIS_TYPE": 0, "CLASSIFICATION_TYPE": "U", "NORAD_CAT_ID": 34611, "ELEMENT_SET_NO": 999, "REV_AT_EPOCH": 88243, "BSTAR": 0.0020752, "MEAN_MOTION_DOT": 0.00012256, "MEAN_MOTION_DDOT": 0}, "tle": {"line1": "1 34611U 93036WG  25336.68350992  .00012256  00000+0  20752-2 0  9990", "line2": "2 34611  74.0521 120.4215 0024047 165.3295 209.2062 14.69161459882431"}}, "geometry": {"type": "Point", "coordinates": [-33.26813257376034, -58.070979838399445]}}, {"type": "Feature", "properties": {"norad_id": 34613, "name": "COSMOS 2251 DEB", "group": "cosmos-2251-debris", "lat": 1.02249413899727, "lon": -63.83649268786465, "alt_km": 855.7640727867592, "timestamp": "2025-12-03T04:52:30.033430+00:00", "meta": {"OBJECT_NAME": "COSMOS 2251 DEB", "OBJECT_ID": "1993-036WJ", "EPOCH": "2025-12-02T14:16:40.154016", "MEAN_MOTION": 14.26335648, "ECCENTRICITY": 0.01101588, "INCLINATION": 73.9632, "RA_OF_ASC_NODE": 296.9732, "ARG_OF_PERICENTER": 131.4585, "MEAN_ANOMALY": 348.8647, "EPHEMERIS_TYPE": 0, "CLASSIFICATION_TYPE": "U", "NORAD_CAT_ID": 34613, "ELEMENT_SET_NO": 999, "REV_AT_EPOCH": 86318, "BSTAR": 0.0014991683, "MEAN_MOTION_DOT": 3.815e-05, "MEAN_MOTION_DDOT": 0}, "tle": {"line1": "1 34613U 93036WJ  25336.59490919  .00003815  00000+0  14992-2 0  9996", "line2": "2 34613  73.9632 296.9732 0110158 131.4585 348.8647 14.26335648863188"}}, "geometry": {"type": "Point", "coordinates": [-63.83649268786465, 1.02249413899727]}}, {"type": "Feature", "properties": {"norad_id": 34614, "name": "COSMOS 2251 DEB", "group": "cosmos-2251-debris", "lat": -44.326833129137654, "lon": -162.54899100367004, "alt_km": 931.1054813882156, "timestamp": "2025-12-03T04:52:30.033442+00:00", "meta": {"OBJECT_NAME": "COSMOS 2251 DEB", "OBJECT_ID": "1993-036WK", "EPOCH": "2025-12-01T02:57:24.830784", "MEAN_MOTION": 14.17031843, "ECCENTRICITY": 0.01960492, "INCLINATION": 73.8807, "RA_OF_ASC_NODE": 4.7818, "ARG_OF_PERICENTER": 0.8812, "MEAN_ANOMALY": 61.0793, "EPHEMERIS_TYPE": 0, "CLASSIFICATION_TYPE": "U", "NORAD_CAT_ID": 34614, "ELEMENT_SET_NO": 999, "REV_AT_EPOCH": 84602, "BSTAR": 0.0044777238, "MEAN_MOTION_DOT": 0.00010861, "MEAN_MOTION_DDOT": 0}, "tle": {"line1": "1 34614U 93036WK  25335.12320406  .00010861  00000+0  44777-2 0  9991", "line2": "2 34614  73.8807   4.7818 0196049   0.8812  61.0793 14.17031843846027"}}, "geometry": {"type": "Point", "coordinates": [-162.54899100367004, -44.326833129137654]}}, {"type": "Feature", "properties": {"norad_id": 34615, "name": "COSMOS 2251 DEB", "group": "cosmos-2251-debris", "lat": -12.34905477744312, "lon": 133.03870339998514, "alt_km": 796.5374157033739, "timestamp": "2025-12-03T04:52:30.033453+00:00", "meta": {"OBJECT_NAME": "COSMOS 2251 DEB", "OBJECT_ID": "1993-036WL", "EPOCH": "2025-12-01T17:17:48.208704", "MEAN_MOTION": 13.52196517, "ECCENTRICITY": 0.04023715, "INCLINATION": 74.0055, "RA_OF_ASC_NODE": 311.8151, "ARG_OF_PERICENTER": 221.3257, "MEAN_ANOMALY": 319.7339, "EPHEMERIS_TYPE": 0, "CLASSIFICATION_TYPE": "U", "NORAD_CAT_ID": 34615, "ELEMENT_SET_NO": 999, "REV_AT_EPOCH": 82666, "BSTAR": 4.7217708e-05, "MEAN_MOTION_DOT": 2.9e-07, "MEAN_MOTION_DDOT": 0}, "tle": {"line1": "1 34615U 93036WL  25335.72069686  .00000029  00000+0  47218-4 0  9998", "line2": "2 34615  74.0055 311.8151 0402371 221.3257 319.7339 13.52196517826664"}}, "geometry": {"type": "Point", "coordinates": [133.03870339998514, -12.34905477744312]}}, {"type": "Feature", "properties": {"norad_id": 34619, "name": "COSMOS 2251 DEB", "group": "cosmos-2251-debris", "lat": -24.634186621949784, "lon": 45.802804747248615, "alt_km": 705.5355240537756, "timestamp": "2025-12-03T04:52:30.033463+00:00", "meta": {"OBJECT_NAME": "COSMOS 2251 DEB", "OBJECT_ID": "1993-036WQ", "EPOCH": "2025-12-02T18:05:42.842112", "MEAN_MOTION": 14.64601992, "ECCENTRICITY": 0.0094555, "INCLINATION": 74.0445, "RA_OF_ASC_NODE": 219.1271, "ARG_OF_PERICENTER": 316.2875, "MEAN_ANOMALY": 43.0831, "EPHEMERIS_TYPE": 0, "CLASSIFICATION_TYPE": "U", "NORAD_CAT_ID": 34619, "ELEMENT_SET_NO": 999, "REV_AT_EPOCH": 89152, "BSTAR": 0.00031021, "MEAN_MOTION_DOT": 1.725e-05, "MEAN_MOTION_DDOT": 0}, "tle": {"line1": "1 34619U 93036WQ  25336.75396808  .00001725  00000+0  31021-3 0  9993", "line2": "2 34619  74.0445 219.1271 0094555 316.2875  43.0831 14.64601992891528"}}, "geometry": {"type": "Point", "coordinates": [45.802804747248615, -24.634186621949784]}}, {"type": "Feature", "properties": {"norad_id": 34620, "name": "COSMOS 2251 DEB", "group": "cosmos-2251-debris", "lat": -71.79532490135843, "lon": 117.79365547481468, "alt_km": 680.1232164408757, "timestamp": "2025-12-03T04:52:30.033474+00:00", "meta": {"OBJECT_NAME": "COSMOS 2251 DEB", "OBJECT_ID": "1993-036WR", "EPOCH": "2025-12-02T19:22:55.905600", "MEAN_MOTION": 14.48809864, "ECCENTRICITY": 0.0081949, "INCLINATION": 74.052, "RA_OF_ASC_NODE": 238.1353, "ARG_OF_PERICENTER": 276.8248, "MEAN_ANOMALY": 82.3593, "EPHEMERIS_TYPE": 0, "CLASSIFICATION_TYPE": "U", "NORAD_CAT_ID": 34620, "ELEMENT_SET_NO": 999, "REV_AT_EPOCH": 86683, "BSTAR": 0.00313, "MEAN_MOTION_DOT": 0.0001233, "MEAN_MOTION_DDOT": 0}, "tle": {"line1": "1 34620U 93036WR  25336.80759150  .00012330  00000+0  31300-2 0  9997", "line2": "2 34620  74.0520 238.1353 0081949 276.8248  82.3593 14.48809864866831"}}, "geometry": {"type": "Point", "coordinates": [117.79365547481468, -71.79532490135843]}}, {"type": "Feature", "properties": {"norad_id": 34622, "name": "COSMOS 2251 DEB", "group": "cosmos-2251-debris", "lat": 68.56613019871068, "lon": 97.32879228469587, "alt_km": 768.7205032696911, "timestamp": "2025-12-03T04:52:30.033484+00:00", "meta": {"OBJECT_NAME": "COSMOS 2251 DEB", "OBJECT_ID": "1993-036WT", "EPOCH": "2025-12-01T23:50:38.063904", "MEAN_MOTION": 14.21969293, "ECCENTRICITY": 0.01038806, "INCLINATION": 74.0412, "RA_OF_ASC_NODE": 326.2923, "ARG_OF_PERICENTER": 51.4861, "MEAN_ANOMALY": 342.2462, "EPHEMERIS_TYPE": 0, "CLASSIFICATION_TYPE": "U", "NORAD_CAT_ID": 34622, "ELEMENT_SET_NO": 999, "REV_AT_EPOCH": 86307, "BSTAR": 0.0010275914, "MEAN_MOTION_DOT": 2.373e-05, "MEAN_MOTION_DDOT": 0}, "tle": {"line1": "1 34622U 93036WT  25335.99349611  .00002373  00000+0  10276-2 0  9990", "line2": "2 34622  74.0412 326.2923 0103880  51.4861 342.2462 14.21969293863072"}}, "geometry": {"type": "Point", "coordinates": [97.32879228469587, 68.56613019871068]}}]}